420P/Hill,e,14.5043,173.9519,157.0963,5.530918,0.0757719,0.49584477,357.9903,04/26.0/2022,2000,g 11.5,4.0
# From MPEC 2021-W31
421P/McNaught,e,10.0794,55.3476,259.8372,5.075448,0.0861971,0.67547760,39.2366,04/26.0/2022,2000,g 14.0,4.0
# From MPEC 2022-A21
422P/Christensen,e,39.5476,36.0336,305.1541,6.320899,0.0620206,0.50874423,6.3396,04/26.0/2022,2000,g 11.0,4.0
# From MPEC 2022-A21
423P/Lemmon,e,8.3459,33.3044,80.2990,6.166367,0.0643665,0.12105284,14.1283,04/26.0/2022,2000,g  8.0,4.0
# From MPEC 2022-CN4
424P/LaSagra,e,8.6855,51.1775,312.4779,4.414033,0.1062798,0.69126849,18.7440,04/26.0/2022,2000,g 17.0,4.0
# From MPEC 2022-GA9
425P/Kowalski,e,16.4205,210.0849,200.7537,6.331623,0.0618631,0.54353151,13.4559,04/26.0/2022,2000,g 12.0,4.0
# From MPEC 2021-Y10
426P/PANSTARRS,e,17.7730,280.5217,119.1193,3.186301,0.1732902,0.16132283,272.3155,04/26.0/2022,2000,g 13.5,4.0
# From MPEC 2022-C56
428P/Gibbs,e,8.5148,299.3372,36.8235,3.484413,0.1515338,0.51949258,52.4811,04/26.0/2022,2000,g 15.0,4.0
# From MPEC 2022-H04
429P/LINEAR-Hill,e,7.5220,322.0732,75.5390,3.550606,0.1473162,0.49128570,16.7730,04/26.0/2022,2000,g 15.5,4.0
# From MPEC 2022-CN4
430P/Scotti,e,4.4750,54.6720,94.4974,3.106666,0.1799957,0.49959240,26.0608,04/26.0/2022,2000,g 16.5,4.0
# From MPEC 2022-ED3
431P/Scotti,e,22.3922,202.8463,199.8574,3.472274,0.1523291,0.47766608,10.9115,04/26.0/2022,2000,g 14.0,4.0
# From MPEC 2021-U31
432P/PANSTARRS,e,10.0694,239.1429,105.2359,3.035472,0.1863652,0.24202664,44.4765,04/26.0/2022,2000,g 17.0,4.0
# From MPEC 2022-GA9
434P/Tenagra,e,6.3395,288.9680,128.0543,4.128055,0.1175130,0.27435433,21.4074,04/26.0/2022,2000,g 13.0,4.0
# From MPEC 2021-W31
435P/PANSTARRS,e,18.8827,98.5498,244.1520,3.018367,0.1879516,0.31871171,51.2235,04/26.0/2022,2000,g 17.0,4.0
# From MPEC 2022-C56
436P/Garradd,e,20.2105,87.1896,282.5967,5.928849,0.0682729,0.66981269,9.4557,04/26.0/2022,2000,g 14.5,4.0
# From MPEC 2021-Y10
437P/PANSTARRS,e,3.6897,245.8688,206.7118,4.558668,0.1012621,0.25412629,348.4129,04/26.0/2022,2000,g 13.0,4.0
# From MPEC 2021-W47
438P/Christensen,e,8.2877,260.1550,58.9484,3.847075,0.1306195,0.41574154,98.0480,04/26.0/2022,2000,g 14.5,4.0
# From MPEC 2022-C56
439P/LINEAR,e,7.1142,56.4161,342.0012,3.487699,0.1513198,0.46949181,36.7539,04/26.0/2022,2000,g 13.5,4.0
# From MPEC 2022-H30
440P/Kobayashi,e,12.3394,328.8822,183.3179,8.584775,0.0391842,0.76047931,1.0599,04/26.0/2022,2000,g 15.5,4.0
# From MPEC 2022-F14
441P/PANSTARRS,e,2.5745,143.6159,178.7293,4.134790,0.1172260,0.19559887,215.7067,04/26.0/2022,2000,g 13.5,4.0
# From MPC107687
1I/`Oumuamua,h,09/09.4886/2017,122.6778,24.5997,241.6845,1.199252,0.255240,2000,23.0,2.0
# From MPEC 2020-K19
2I/Borisov,h,12/08.5549/2019,44.0527,308.1480,209.1251,3.356636,2.006548,2000,11.0,4.0
